{
  "type": "FeatureCollection",
  "features": [
    {
      "type": "Feature",
      "properties": {
        "norad_id": 39773,
        "name": "EUTELSAT 3B",
        "group": "eutelsat",
        "lat": -0.03809392976396826,
        "lon": -157.73879231129123,
        "alt_km": 35771.555691755064,
        "timestamp": "2025-12-25T07:00:33.713760+00:00",
        "meta_object_name": "EUTELSAT 3B",
        "meta_object_id": "2014-030A",
        "meta_epoch": "2025-12-24T21:40:29.296704",
        "meta_mean_motion": 1.00269847,
        "meta_eccentricity": 0.0004252,
        "meta_inclination": 0.0606,
        "meta_ra_of_asc_node": 349.0509,
        "meta_arg_of_pericenter": 245.9198,
        "meta_mean_anomaly": 186.9247,
        "meta_ephemeris_type": 0,
        "meta_classification_type": "U",
        "meta_norad_cat_id": 39773,
        "meta_element_set_no": 999,
        "meta_rev_at_epoch": 4232,
        "meta_bstar": 0,
        "meta_mean_motion_dot": 4.1e-07,
        "meta_mean_motion_ddot": 0,
        "tle_line1": "1 39773U 14030A   25358.90311686  .00000041  00000+0  00000+0 0  9997",
        "tle_line2": "2 39773   0.0606 349.0509 0004252 245.9198 186.9247  1.00269847 42329"
      },
      "geometry": {
        "type": "Point",
        "coordinates": [
          -157.73879231129123,
          -0.03809392976396826
        ]
      }
    },
    {
      "type": "Feature",
      "properties": {
        "norad_id": 40425,
        "name": "EUTELSAT 115 WEST B",
        "group": "eutelsat",
        "lat": -0.02005990130359392,
        "lon": 84.2790351478491,
        "alt_km": 35786.02879505485,
        "timestamp": "2025-12-25T07:00:33.713773+00:00",
        "meta_object_name": "EUTELSAT 115 WEST B",
        "meta_object_id": "2015-010B",
        "meta_epoch": "2025-12-24T09:59:58.343136",
        "meta_mean_motion": 1.00271259,
        "meta_eccentricity": 1.435e-05,
        "meta_inclination": 0.0435,
        "meta_ra_of_asc_node": 188.915,
        "meta_arg_of_pericenter": 182.2118,
        "meta_mean_anomaly": 117.1483,
        "meta_ephemeris_type": 0,
        "meta_classification_type": "U",
        "meta_norad_cat_id": 40425,
        "meta_element_set_no": 999,
        "meta_rev_at_epoch": 3964,
        "meta_bstar": 0,
        "meta_mean_motion_dot": -4e-08,
        "meta_mean_motion_ddot": 0,
        "tle_line1": "1 40425U 15010B   25358.41664749 -.00000004  00000+0  00000+0 0  9999",
        "tle_line2": "2 40425   0.0435 188.9150 0000143 182.2118 117.1483  1.00271259 39646"
      },
      "geometry": {
        "type": "Point",
        "coordinates": [
          84.2790351478491,
          -0.02005990130359392
        ]
      }
    },
    {
      "type": "Feature",
      "properties": {
        "norad_id": 40875,
        "name": "EUTELSAT 8 WEST B",
        "group": "eutelsat",
        "lat": -0.0029255261442278995,
        "lon": -168.86275118008413,
        "alt_km": 35784.126354530155,
        "timestamp": "2025-12-25T07:00:33.713785+00:00",
        "meta_object_name": "EUTELSAT 8 WEST B",
        "meta_object_id": "2015-039B",
        "meta_epoch": "2025-12-24T21:37:14.608128",
        "meta_mean_motion": 1.00271302,
        "meta_eccentricity": 0.00042262,
        "meta_inclination": 0.0643,
        "meta_ra_of_asc_node": 8.5313,
        "meta_arg_of_pericenter": 265.9038,
        "meta_mean_anomaly": 135.5425,
        "meta_ephemeris_type": 0,
        "meta_classification_type": "U",
        "meta_norad_cat_id": 40875,
        "meta_element_set_no": 999,
        "meta_rev_at_epoch": 3790,
        "meta_bstar": 0,
        "meta_mean_motion_dot": -4.5e-07,
        "meta_mean_motion_ddot": 0,
        "tle_line1": "1 40875U 15039B   25358.90086352 -.00000045  00000+0  00000+0 0  9996",
        "tle_line2": "2 40875   0.0643   8.5313 0004226 265.9038 135.5425  1.00271302 37906"
      },
      "geometry": {
        "type": "Point",
        "coordinates": [
          -168.86275118008413,
          -0.0029255261442278995
        ]
      }
    },
    {
      "type": "Feature",
      "properties": {
        "norad_id": 41310,
        "name": "EUTELSAT 9B",
        "group": "eutelsat",
        "lat": 0.0013552170987736623,
        "lon": -151.83889586676332,
        "alt_km": 35777.23678260177,
        "timestamp": "2025-12-25T07:00:33.713797+00:00",
        "meta_object_name": "EUTELSAT 9B",
        "meta_object_id": "2016-005A",
        "meta_epoch": "2025-12-24T06:17:44.244960",
        "meta_mean_motion": 1.00272813,
        "meta_eccentricity": 0.00045278,
        "meta_inclination": 0.023,
        "meta_ra_of_asc_node": 38.5865,
        "meta_arg_of_pericenter": 233.3148,
        "meta_mean_anomaly": 284.5874,
        "meta_ephemeris_type": 0,
        "meta_classification_type": "U",
        "meta_norad_cat_id": 41310,
        "meta_element_set_no": 999,
        "meta_rev_at_epoch": 3636,
        "meta_bstar": 0,
        "meta_mean_motion_dot": 8.3e-07,
        "meta_mean_motion_ddot": 0,
        "tle_line1": "1 41310U 16005A   25358.26231765  .00000083  00000+0  00000+0 0  9995",
        "tle_line2": "2 41310   0.0230  38.5865 0004527 233.3148 284.5874  1.00272813 36363"
      },
      "geometry": {
        "type": "Point",
        "coordinates": [
          -151.83889586676332,
          0.0013552170987736623
        ]
      }
    },
    {
      "type": "Feature",
      "properties": {
        "norad_id": 41382,
        "name": "EUTELSAT 65 WEST A",
        "group": "eutelsat",
        "lat": 0.03898714818188421,
        "lon": 133.9923603318936,
        "alt_km": 35793.73552025227,
        "timestamp": "2025-12-25T07:00:33.713809+00:00",
        "meta_object_name": "EUTELSAT 65 WEST A",
        "meta_object_id": "2016-014A",
        "meta_epoch": "2025-12-24T19:38:18.500352",
        "meta_mean_motion": 1.00272022,
        "meta_eccentricity": 0.00022735,
        "meta_inclination": 0.0488,
        "meta_ra_of_asc_node": 342.9947,
        "meta_arg_of_pericenter": 293.8547,
        "meta_mean_anomaly": 46.1348,
        "meta_ephemeris_type": 0,
        "meta_classification_type": "U",
        "meta_norad_cat_id": 41382,
        "meta_element_set_no": 999,
        "meta_rev_at_epoch": 3578,
        "meta_bstar": 0,
        "meta_mean_motion_dot": -2.55e-06,
        "meta_mean_motion_ddot": 0,
        "tle_line1": "1 41382U 16014A   25358.81826968 -.00000255  00000+0  00000+0 0  9992",
        "tle_line2": "2 41382   0.0488 342.9947 0002273 293.8547  46.1348  1.00272022 35785"
      },
      "geometry": {
        "type": "Point",
        "coordinates": [
          133.9923603318936,
          0.03898714818188421
        ]
      }
    },
    {
      "type": "Feature",
      "properties": {
        "norad_id": 41589,
        "name": "EUTELSAT 117 WEST B",
        "group": "eutelsat",
        "lat": -0.006124289758521955,
        "lon": 82.19758152375616,
        "alt_km": 35786.64750284312,
        "timestamp": "2025-12-25T07:00:33.713821+00:00",
        "meta_object_name": "EUTELSAT 117 WEST B",
        "meta_object_id": "2016-038B",
        "meta_epoch": "2025-12-24T09:59:01.014144",
        "meta_mean_motion": 1.00277873,
        "meta_eccentricity": 6.384e-05,
        "meta_inclination": 0.0094,
        "meta_ra_of_asc_node": 154.0765,
        "meta_arg_of_pericenter": 139.5473,
        "meta_mean_anomaly": 192.3072,
        "meta_ephemeris_type": 0,
        "meta_classification_type": "U",
        "meta_norad_cat_id": 41589,
        "meta_element_set_no": 999,
        "meta_rev_at_epoch": 3491,
        "meta_bstar": 0,
        "meta_mean_motion_dot": 9e-08,
        "meta_mean_motion_ddot": 0,
        "tle_line1": "1 41589U 16038B   25358.41598396  .00000009  00000+0  00000+0 0  9990",
        "tle_line2": "2 41589   0.0094 154.0765 0000638 139.5473 192.3072  1.00277873 34915"
      },
      "geometry": {
        "type": "Point",
        "coordinates": [
          82.19758152375616,
          -0.006124289758521955
        ]
      }
    },
    {
      "type": "Feature",
      "properties": {
        "norad_id": 42741,
        "name": "EUTELSAT 172B",
        "group": "eutelsat",
        "lat": -0.019063477827329277,
        "lon": 11.185982625206867,
        "alt_km": 35786.84038712062,
        "timestamp": "2025-12-25T07:00:33.713833+00:00",
        "meta_object_name": "EUTELSAT 172B",
        "meta_object_id": "2017-029B",
        "meta_epoch": "2025-12-24T20:45:57.021120",
        "meta_mean_motion": 1.00270202,
        "meta_eccentricity": 1.37e-05,
        "meta_inclination": 0.0319,
        "meta_ra_of_asc_node": 134.4389,
        "meta_arg_of_pericenter": 1.6548,
        "meta_mean_anomaly": 81.0289,
        "meta_ephemeris_type": 0,
        "meta_classification_type": "U",
        "meta_norad_cat_id": 42741,
        "meta_element_set_no": 999,
        "meta_rev_at_epoch": 3198,
        "meta_bstar": 0,
        "meta_mean_motion_dot": 1.5e-07,
        "meta_mean_motion_ddot": 0,
        "tle_line1": "1 42741U 17029B   25358.86524330  .00000015  00000+0  00000+0 0  9995",
        "tle_line2": "2 42741   0.0319 134.4389 0000137   1.6548  81.0289  1.00270202 31983"
      },
      "geometry": {
        "type": "Point",
        "coordinates": [
          11.185982625206867,
          -0.019063477827329277
        ]
      }
    }
  ]
}